satname,norad_id,inclination_deg,eccentricity,mean_motion_rev_per_day,perigee_km,apogee_km,l1,l2
STARLINK-1404,45686,53.1577,0.0004721,15.41069725,439.73070841506797,446.1711796518248,1 45686U 20035AF  26126.32659326  .00046597  00000+0  11130-2 0  9990,2 45686  53.1577 139.4026 0004721  51.3630 308.7798 15.41069725327831
STARLINK-1413,45689,53.1566,0.0003897,15.32327901,466.20061600155805,471.5371723954959,1 45689U 20035AJ  26126.42134126  .00031255  00000+0  99491-3 0  9992,2 45689  53.1566 141.2110 0003897  48.7923 311.3415 15.32327901327733
STARLINK-1417,45693,53.0498,0.0005958,15.15317803,515.9039876391671,524.123824258696,1 45693U 20035AN  26126.49181792  .00017891  00000+0  95193-3 0  9990,2 45693  53.0498 151.7416 0005958  38.2618 321.8797 15.15317803327652
STARLINK-1420,45695,53.0466,0.0006864,15.64897885,368.89811073661167,378.16680256670315,1 45695U 20035AQ  26126.35457647  .00044857  00000+0  45277-3 0  9992,2 45695  53.0466 101.7283 0006864  35.1425 325.0041 15.64897885328358
STARLINK-1422,45696,53.1566,0.0003619,15.3248464,465.92425977059156,470.8797847148908,1 45696U 20035AR  26126.36028757  .00034583  00000+0  10938-2 0  9990,2 45696  53.1566 141.4612 0003619  47.2549 312.8757 15.32484640327807
STARLINK-1351,45697,53.0446,0.0007177,15.62567835,375.39221285127496,385.09319107547344,1 45697U 20035AS  26126.91563351  .00091266  00000+0  99756-3 0  9993,2 45697  53.0446  99.0124 0007177  37.7558 322.3958 15.62567835328448
STARLINK-1400,45700,53.0439,0.0006075,15.60237669,382.8601776798441,391.07978266075133,1 45700U 20035AV  26126.95282282  .00057715  00000+0  69552-3 0  9995,2 45700  53.0439 100.9283 0006075   7.4532 352.6569 15.60237669328413
STARLINK-1403,45701,53.1548,0.0002987,15.31409942,469.5587616323073,473.6507973713824,1 45701U 20035AW  26126.41662634  .00038772  00000+0  12660-2 0  9999,2 45701  53.1548 128.5091 0002987  57.1467 302.9822 15.31409942327980
STARLINK-1407,45703,53.0304,0.0002204,15.69446715,358.99508538599457,361.9654678815341,1 45703U 20035AY  26126.99318564  .00050028  00000+0  41976-3 0  9995,2 45703  53.0304  29.4009 0002204 343.5907  16.5037 15.69446715329429
STARLINK-1411,45706,53.0355,0.0003535,15.77334846,335.621150207131,340.36945574533456,1 45706U 20035BB  26127.00002315  .00049472  00000+0  29635-3 0  9994,2 45706  53.0355  53.4798 0003535  93.8881  48.6097 15.77334846  5999
STARLINK-1423,45710,53.0435,0.0007756,15.65880768,365.4724676037604,375.94127421631674,1 45710U 20035BF  26126.91519711  .00045079  00000+0  43738-3 0  9990,2 45710  53.0435  98.6426 0007756   9.8864 350.2302 15.65880768328433
STARLINK-1433,45711,53.0437,0.0007612,15.65474134,366.7373916199431,377.013610651672,1 45711U 20035BG  26126.95591000  .00042703  00000+0  42153-3 0  9997,2 45711  53.0437  96.9443 0007612  16.8646 343.2620 15.65474134328467
STARLINK-1434,45712,53.0506,0.0003891,15.31856317,467.60934526378605,472.9387787522419,1 45712U 20035BH  26126.33628213  .00042277  00000+0  13595-2 0  9990,2 45712  53.0506 111.9264 0003891  11.9319 348.1772 15.31856317328217
STARLINK-1465,45731,53.047,0.0002603,15.59403685,387.6202093453476,391.1433796297588,1 45731U 20038B   26126.88771234  .00075061  00000+0  93037-3 0  9993,2 45731  53.0470 301.9289 0002603 172.3705 187.7347 15.59403685325439
STARLINK-1471,45735,53.0446,0.0002525,15.52049508,409.02873758125133,412.4571219457812,1 45735U 20038F   26126.85204514  .00019598  00000+0  32638-3 0  9999,2 45735  53.0446 222.6942 0002525  49.7214 310.4015 15.52049508326550
STARLINK-1480,45741,53.0506,0.0003349,15.60803776,383.06898191211803,387.59915483371424,1 45741U 20038M   26126.74864318  .00083802  00000+0  98286-3 0  9998,2 45741  53.0506 296.3473 0003349 263.2103  96.8529 15.60803776325510
STARLINK-1500,45744,53.0369,0.000289,15.37808667,450.616601790015,454.56476239026324,1 45744U 20038Q   26126.44421929  .00022846  00000+0  61445-3 0  9993,2 45744  53.0369 281.1890 0002890  90.0595 270.0738 15.37808667325691
STARLINK-1504,45746,53.0205,0.0002502,15.57113446,394.32115939981304,397.71094558727964,1 45746U 20038S   26126.71755324  .00028112  00000+0  38618-3 0  9992,2 45746  53.0205 221.3873 0002502  18.9310 341.1794 15.57113446326546
STARLINK-1506,45747,53.0773,0.0003988,15.27827503,479.5721375698022,485.0440285680579,1 45747U 20038T   26126.78059517  .00006598  00000+0  25210-3 0  9999,2 45747  53.0773 293.3265 0003988  85.0129 275.1325 15.27827503325563
STARLINK-1464,45751,53.0479,8.73e-05,15.5146789,411.84669415837925,413.0323288172849,1 45751U 20038X   26126.82116645  .00064963  00000+0  10805-2 0  9998,2 45751  53.0479 286.7201 0000873 256.4205 103.6706 15.51467890325650
STARLINK-1477,45754,53.0511,0.0002012,15.1736955,512.4075156233939,515.1808287270778,1 45754U 20038AA  26126.91630790  .00022167  00000+0  11088-2 0  9997,2 45754  53.0511 307.6883 0002012 149.7144 210.3966 15.17369550325360
STARLINK-1478,45755,53.0467,0.0001462,15.65097163,371.9723242332584,373.94634480147124,1 45755U 20038AB  26126.79785986  .00041399  00000+0  41558-3 0  9996,2 45755  53.0467 274.7550 0001462 320.1446  39.9461 15.65097163325809
STARLINK-1493,45759,53.0487,0.0004621,15.60137423,384.13348003073315,390.3860597254543,1 45759U 20038AF  26126.93040452  .00073831  00000+0  88992-3 0  9997,2 45759  53.0487 282.8492 0004621 255.3193 104.7307 15.60137423325706
STARLINK-1494,45760,53.0434,0.0005698,15.90161214,298.0250892137692,305.63758112853066,1 45760U 20038AG  26127.00002315  .00163515  20825-4  53889-3 0  9992,2 45760  53.0434 218.5491 0005698 330.5275 204.2595 15.90161214  5918
STARLINK-1502,45764,53.0475,0.0005756,15.56390895,394.2120713953891,402.01288979745095,1 45764U 20038AL  26125.75257890  .00086290  00000+0  11941-2 0  9990,2 45764  53.0475 291.5256 0005756 220.2612 139.7973 15.56390895325493
STARLINK-1470,45772,53.0443,0.0001964,15.3299894,465.52629749965945,468.2150165073308,1 45772U 20038AU  26126.59562627  .00039223  00000+0  12185-2 0  9994,2 45772  53.0443 264.5059 0001964 254.4113 105.6671 15.32998940325946
STARLINK-1482,45773,53.1576,0.0002374,15.35204142,458.69075573513237,461.937652366817,1 45773U 20038AV  26126.91631871  .00040273  00000+0  11665-2 0  9998,2 45773  53.1576 279.5773 0002374 253.2221 106.8521 15.35204142325772
STARLINK-1496,45780,53.0469,0.0005255,15.58269165,389.10813107616923,396.22424522691654,1 45780U 20038BC  26126.74621669  .00089791  00000+0  11578-2 0  9992,2 45780  53.0469 257.8856 0005255 334.0140  26.0607 15.58269165326039
STARLINK-1513,45786,53.1584,0.000141,15.31711558,469.7398548473575,471.67122844410005,1 45786U 20038BJ  26126.86457612  .00002405  00000+0  89221-4 0  9995,2 45786  53.1584 280.7019 0001410  75.6813 284.4345 15.31711558325750
STARLINK-1522,46027,53.063,0.0001738,15.1188364,529.2550963940394,531.6565232547346,1 46027U 20055A   26126.64538372  .00022151  00000+0  12927-2 0  9999,2 46027  53.0630 224.7299 0001738 311.5301  48.5542 15.11883640317642
STARLINK-1523,46028,53.1611,0.0001213,15.30211008,474.3508940933989,476.0135093317349,1 46028U 20055B   26126.52176691  .00004606  00000+0  16749-3 0  9991,2 46028  53.1611 218.0798 0001213  74.7313 285.3821 15.30211008317759
STARLINK-1526,46029,53.1603,0.0001461,15.30214381,474.1708622178094,476.1733991457959,1 46029U 20055C   26126.64607530  .00006666  00000+0  23689-3 0  9995,2 46029  53.1603 217.5120 0001461  78.6931 281.4234 15.30214381317761
STARLINK-1555,46032,53.159,0.0001612,15.30196887,474.11960244003694,476.3291261438835,1 46032U 20055F   26126.95685315  .00000306  00000+0  22484-4 0  9998,2 46032  53.1590 216.0495 0001612  82.1757 277.9427 15.30196887317813
STARLINK-1556,46033,53.1587,0.0001156,15.30210758,474.39070437264854,475.9751919446626,1 46033U 20055G   26126.54810959  .00008267  00000+0  29084-3 0  9994,2 46033  53.1587 217.9659 0001156  86.3866 273.7267 15.30210758317722
STARLINK-1557,46034,53.1572,0.0001161,15.30213556,474.37892446956175,475.97026342167646,1 46034U 20055H   26126.55126440  .00002861  00000+0  10864-3 0  9991,2 46034  53.1572 217.9467 0001161  93.8220 266.2913 15.30213556317721
STARLINK-1558,46035,53.1584,0.0001502,15.30214495,474.1424233234002,476.2011572840065,1 46035U 20055J   26126.95052961  .00004263  00000+0  15592-3 0  9993,2 46035  53.1584 216.0891 0001502  85.8977 274.2196 15.30214495317810
STARLINK-1560,46036,53.1588,0.0001164,15.30225042,474.3425780631924,475.93802101852543,1 46036U 20055K   26126.74088427  .00006626  00000+0  23545-3 0  9999,2 46036  53.1588 217.0740 0001164  71.6115 288.5012 15.30225042317781
STARLINK-1567,46038,53.0732,0.0005472,16.17965382,221.4685668635302,228.6951295710187,1 46038U 20055M   26127.08640184  .01956632  42464-2  12461-2 0  9992,2 46038  53.0732 197.7005 0005472 352.9515   7.1445 16.17965382318067
STARLINK-1569,46039,53.1609,0.0002053,15.30193096,473.82868618443445,476.6426810083185,1 46039U 20055N   26126.95369494 -.00000455  00000+0 -32279-5 0  9993,2 46039  53.1609 216.0646 0002053  88.1360 271.9876 15.30193096317805
STARLINK-1582,46043,53.1581,0.000121,15.31721848,469.8461620126027,471.50357448472005,1 46043U 20055S   26126.61084770  .00006338  00000+0  21568-3 0  9993,2 46043  53.1581 217.4136 0001210  87.9649 272.1491 15.31721848317752
STARLINK-1591,46045,53.158,0.000123,15.30208716,474.34608603436936,476.03200424147417,1 46045U 20055U   26126.65977203  .00004419  00000+0  16119-3 0  9995,2 46045  53.1580 217.4377 0001230  80.4077 279.7063 15.30208716317745
STARLINK-1524,46047,53.1596,0.0001335,15.31720491,469.7645963774439,471.5932302262963,1 46047U 20055W   26126.51492186  .00005863  00000+0  20041-3 0  9997,2 46047  53.1596 205.1566 0001335  68.3701 291.7442 15.31720491317928
STARLINK-1527,46048,53.1585,0.0001234,15.31729318,469.807460550438,471.49774182401234,1 46048U 20055X   26126.51026349  .00008902  00000+0  29801-3 0  9992,2 46048  53.1585 205.1619 0001234  95.8809 264.2333 15.31729318317895
